[{"OBJECT_NAME":"NEXSAT-1","OBJECT_ID":"2024-024E","EPOCH":"2026-03-09T22:47:24.778176","MEAN_MOTION":15.32166372,"ECCENTRICITY":0.00099795,"INCLINATION":97.3124,"RA_OF_ASC_NODE":144.1918,"ARG_OF_PERICENTER":108.5709,"MEAN_ANOMALY":251.6617,"EPHEMERIS_TYPE":0,"CLASSIFICATION_TYPE":"U","NORAD_CAT_ID":58921,"ELEMENT_SET_NO":999,"REV_AT_EPOCH":11669,"BSTAR":0.00031433612,"MEAN_MOTION_DOT":9.702e-5,"MEAN_MOTION_DDOT":0},{"OBJECT_NAME":"STARLINK-32946","OBJECT_ID":"2025-048P","EPOCH":"2026-03-09T11:24:43.645824","MEAN_MOTION":15.27580841,"ECCENTRICITY":0.00014403,"INCLINATION":43.0013,"RA_OF_ASC_NODE":90.5347,"ARG_OF_PERICENTER":268.9113,"MEAN_ANOMALY":91.1574,"EPHEMERIS_TYPE":0,"CLASSIFICATION_TYPE":"U","NORAD_CAT_ID":63196,"ELEMENT_SET_NO":999,"REV_AT_EPOCH":5701,"BSTAR":0.0011731282,"MEAN_MOTION_DOT":0.00032162,"MEAN_MOTION_DDOT":0}]
